SPOT 6                  
1 38755U 12047A   26189.94474193 -.00000053  00000+0 -16352-5 0  9990
2 38755  98.2107 256.9982 0001153  81.8254 278.3076 14.58535941736224
SPOT 7                  
1 40053U 14034A   26189.96095081  .00000167  00000+0  43239-4 0  9996
2 40053  98.0615 251.8908 0001533  97.4143 262.7233 14.60977394640315
